NORAD_CAT_ID,OBJECT_NAME,OBJECT_TYPE,EPOCH,MEAN_MOTION,ECCENTRICITY,INCLINATION,RA_OF_ASC_NODE,ARG_OF_PERICENTER,MEAN_ANOMALY,BSTAR,MEAN_MOTION_DOT,MEAN_MOTION_DDOT,TLE_LINE0,TLE_LINE1,TLE_LINE2,SEMIMAJOR_AXIS,PERIOD,APOGEE,PERIGEE,DECAYED
53632.0,STARLINK-4606,PAYLOAD,2023-07-03 15:44:00,15.08847346,8.95e-05,53.2177,303.6505,91.4968,268.6127,0.00013548,1.87e-05,0.0,0 STARLINK-4606,1 53632U 22104AW  23184.65555956  .00001870  00000-0  13548-3 0  9992,2 53632  53.2177 303.6505 0000895  91.4968 268.6127 15.08847346 47253,6917.858,95.437,540.342,539.104,0.0
53632.0,STARLINK-4606,PAYLOAD,2023-07-04 12:24:01,15.08840969,9.18e-05,53.2175,299.7878,88.5059,271.6039,2.0233e-05,3.4e-07,0.0,0 STARLINK-4606,1 53632U 22104AW  23185.51668746  .00000034  00000-0  20233-4 0  9991,2 53632  53.2175 299.7878 0000918  88.5059 271.6039 15.08840969 47387,6917.877,95.437,540.377,539.107,0.0
53632.0,STARLINK-4606,PAYLOAD,2023-07-05 15:25:34,15.08842681,9.34e-05,53.2181,294.7278,95.7237,264.3861,-1.4892e-05,-5.25e-06,0.0,0 STARLINK-4606,1 53632U 22104AW  23186.64276610 -.00000525  00000-0 -14892-4 0  9992,2 53632  53.2181 294.7278 0000934  95.7237 264.3861 15.08842681 47553,6917.872,95.437,540.383,539.091,0.0
53632.0,STARLINK-4606,PAYLOAD,2023-07-06 16:51:44,15.08845448,8.56e-05,53.2172,289.973,90.4803,269.6287,9.7129e-05,1.259e-05,0.0,0 STARLINK-4606,1 53632U 22104AW  23187.70260243  .00001259  00000-0  97129-4 0  9992,2 53632  53.2172 289.9730 0000856  90.4803 269.6287 15.08845448 47718,6917.864,95.437,540.321,539.137,0.0
53632.0,STARLINK-4606,PAYLOAD,2023-07-07 10:20:59,15.08841795,9.32e-05,53.2178,286.7003,85.183,274.9268,9.576e-05,1.237e-05,0.0,0 STARLINK-4606,1 53632U 22104AW  23188.43124620  .00001237  00000-0  95760-4 0  9996,2 53632  53.2178 286.7003 0000932  85.1830 274.9268 15.08841795 47829,6917.875,95.437,540.385,539.095,0.0
53632.0,STARLINK-4606,PAYLOAD,2023-07-08 16:33:19,15.08846695,9.27e-05,53.2175,281.0532,94.0317,266.0781,5.724e-05,6.24e-06,0.0,0 STARLINK-4606,1 53632U 22104AW  23189.68980347  .00000624  00000-0  57240-4 0  9990,2 53632  53.2175 281.0532 0000927  94.0317 266.0781 15.08846695 48012,6917.86,95.437,540.366,539.084,0.0
53632.0,STARLINK-4606,PAYLOAD,2023-07-09 05:16:25,15.08829037,0.0001041,53.2175,278.6732,87.9637,272.1474,-8.6891e-06,-4.26e-06,0.0,0 STARLINK-4606,1 53632U 22104AW  23190.21973832 -.00000426  00000-0 -86891-5 0  9999,2 53632  53.2175 278.6732 0001041  87.9637 272.1474 15.08829037 48096,6917.914,95.438,540.499,539.059,0.0
53632.0,STARLINK-4606,PAYLOAD,2023-07-09 22:45:39,15.08837738,9.85e-05,53.2177,275.403,94.0542,266.0563,4.3666e-05,4.07e-06,0.0,0 STARLINK-4606,1 53632U 22104AW  23190.94837401  .00000407  00000-0  43666-4 0  9999,2 53632  53.2177 275.4030 0000985  94.0542 266.0563 15.08837738 48205,6917.887,95.438,540.434,539.071,0.0
53632.0,STARLINK-4606,PAYLOAD,2023-07-10 17:50:16,15.08851212,8.38e-05,53.2166,271.8342,85.8123,274.2965,0.00012836,1.756e-05,0.0,0 STARLINK-4606,1 53632U 22104AW  23191.74324361  .00001756  00000-0  12836-3 0  9996,2 53632  53.2166 271.8342 0000838  85.8123 274.2965 15.08851212 48322,6917.846,95.437,540.291,539.131,0.0
53632.0,STARLINK-4606,PAYLOAD,2023-07-10 22:36:26,15.08840951,9.25e-05,53.2169,270.9418,76.9164,283.1931,4.8243e-05,4.8e-06,0.0,0 STARLINK-4606,1 53632U 22104AW  23191.94197300  .00000480  00000-0  48243-4 0  9994,2 53632  53.2169 270.9418 0000925  76.9164 283.1931 15.08840951 48355,6917.877,95.437,540.382,539.103,0.0
53632.0,STARLINK-4606,PAYLOAD,2023-07-12 04:48:46,15.08832509,5.6e-05,53.2161,265.2928,55.7826,304.3219,0.00012196,1.654e-05,0.0,0 STARLINK-4606,1 53632U 22104AW  23193.20053419  .00001654  00000-0  12196-3 0  9998,2 53632  53.2161 265.2928 0000560  55.7826 304.3219 15.08832509 48541,6917.903,95.438,540.156,539.381,0.0
53632.0,STARLINK-4606,PAYLOAD,2023-07-12 15:56:27,15.08847133,0.0001101,53.2151,263.2103,69.322,290.789,0.00028443,4.243e-05,0.0,0 STARLINK-4606,1 53632U 22104AW  23193.66420977  .00004243  00000-0  28443-3 0  9994,2 53632  53.2151 263.2103 0001101  69.3220 290.7890 15.08847133 48614,6917.859,95.437,540.485,538.962,0.0
53632.0,STARLINK-4606,PAYLOAD,2023-07-13 14:11:51,15.08841243,9.89e-05,53.2155,259.047,81.092,279.0184,8.962e-05,1.139e-05,0.0,0 STARLINK-4606,1 53632U 22104AW  23194.59157376  .00001139  00000-0  89620-4 0  9993,2 53632  53.2155 259.0470 0000989  81.0920 279.0184 15.08841243 48756,6917.877,95.437,540.426,539.057,0.0
53632.0,STARLINK-4606,PAYLOAD,2023-07-14 20:24:11,15.08851754,0.0001018,53.2155,253.3963,89.9893,270.1215,-0.00012789,-2.323e-05,0.0,0 STARLINK-4606,1 53632U 22104AW  23195.85012845 -.00002323  00000-0 -12789-3 0  9993,2 53632  53.2155 253.3963 0001018  89.9893 270.1215 15.08851754 48946,6917.844,95.437,540.414,539.005,0.0
53632.0,STARLINK-4606,PAYLOAD,2023-07-15 09:07:16,15.08842819,0.0001091,53.2159,251.018,91.2744,268.8373,0.00014041,1.948e-05,0.0,0 STARLINK-4606,1 53632U 22104AW  23196.38005447  .00001948  00000-0  14041-3 0  9995,2 53632  53.2159 251.0180 0001091  91.2744 268.8373 15.08842819 49029,6917.872,95.437,540.492,538.982,0.0
53632.0,STARLINK-4606,PAYLOAD,2023-07-15 20:14:59,15.08828685,0.0001037,53.216,248.9367,88.6114,271.4997,-7.7694e-05,-1.524e-05,0.0,0 STARLINK-4606,1 53632U 22104AW  23196.84374112 -.00001524  00000-0 -77694-4 0  9990,2 53632  53.2160 248.9367 0001037  88.6114 271.4997 15.08828685 49098,6917.915,95.438,540.497,539.063,0.0
53632.0,STARLINK-4606,PAYLOAD,2023-07-16 13:44:13,15.0883619,0.0001026,53.2157,245.6661,88.4367,271.6743,3.7661e-05,3.12e-06,0.0,0 STARLINK-4606,1 53632U 22104AW  23197.57238077  .00000312  00000-0  37661-4 0  9992,2 53632  53.2157 245.6661 0001026  88.4367 271.6743 15.08836190 49205,6917.892,95.438,540.467,539.047,0.0
53632.0,STARLINK-4606,PAYLOAD,2023-07-17 08:48:51,15.08847344,9.8e-05,53.2147,242.0976,80.7518,279.3585,0.00026418,3.92e-05,0.0,0 STARLINK-4606,1 53632U 22104AW  23198.36725731  .00003920  00000-0  26418-3 0  9993,2 53632  53.2147 242.0976 0000980  80.7518 279.3585 15.08847344 49320,6917.858,95.437,540.401,539.045,0.0
53632.0,STARLINK-4606,PAYLOAD,2023-07-17 19:56:33,15.08840538,7.68e-05,53.2152,240.0159,89.6009,270.5071,0.00013095,1.797e-05,0.0,0 STARLINK-4606,1 53632U 22104AW  23198.83093821  .00001797  00000-0  13095-3 0  9990,2 53632  53.2152 240.0159 0000768  89.6009 270.5071 15.08840538 49392,6917.879,95.438,540.275,539.212,0.0
53632.0,STARLINK-4606,PAYLOAD,2023-07-19 02:08:52,15.08845456,0.0001756,53.2146,234.3674,102.3642,257.7546,0.00042899,6.547e-05,0.0,0 STARLINK-4606,1 53632U 22104AW  23200.08949846  .00006547  00000-0  42899-3 0  9990,2 53632  53.2146 234.3674 0001756 102.3642 257.7546 15.08845456 49586,6917.864,95.437,540.943,538.514,0.0
53632.0,STARLINK-4606,PAYLOAD,2023-07-19 08:30:25,15.08840914,0.000119,53.2146,233.1747,114.3329,245.7787,0.00011388,1.525e-05,0.0,0 STARLINK-4606,1 53632U 22104AW  23200.35445910  .00001525  00000-0  11388-3 0  9993,2 53632  53.2146 233.1747 0001190 114.3329 245.7787 15.08840914 49624,6917.878,95.437,540.566,538.919,0.0
53632.0,STARLINK-4606,PAYLOAD,2023-07-21 01:50:27,15.08845629,0.0001112,53.2136,225.4442,80.1884,279.9233,0.00031853,4.786e-05,0.0,0 STARLINK-4606,1 53632U 22104AW  23202.07670286  .00004786  00000-0  31853-3 0  9991,2 53632  53.2136 225.4442 0001112  80.1884 279.9233 15.08845629 49880,6917.863,95.437,540.497,538.959,0.0
53632.0,STARLINK-4606,PAYLOAD,2023-07-24 10:55:07,15.08836579,0.0001112,53.2146,210.2772,88.2225,271.8894,5.0391e-05,5.14e-06,0.0,0 STARLINK-4606,1 53632U 22104AW  23205.45494737  .00000514  00000-0  50391-4 0  9995,2 53632  53.2146 210.2772 0001112  88.2225 271.8894 15.08836579 51417,6917.891,95.438,540.525,538.987,0.0
53632.0,STARLINK-4606,PAYLOAD,2023-07-25 12:21:17,15.08841556,0.000112,53.2145,205.5201,88.8814,271.2306,0.00011527,1.547e-05,0.0,0 STARLINK-4606,1 53632U 22104AW  23206.51478648  .00001547  00000-0  11527-3 0  9990,2 53632  53.2145 205.5201 0001120  88.8814 271.2306 15.08841556 51579,6917.876,95.437,540.515,538.966,0.0
53632.0,STARLINK-4606,PAYLOAD,2023-07-26 09:01:18,15.0884259,0.0001229,53.214,201.6554,83.3018,276.8114,0.00013684,1.891e-05,0.0,0 STARLINK-4606,1 53632U 22104AW  23207.37590777  .00001891  00000-0  13684-3 0  9991,2 53632  53.2140 201.6554 0001229  83.3018 276.8114 15.08842590 51700,6917.872,95.437,540.588,538.887,0.0
53632.0,STARLINK-4606,PAYLOAD,2023-07-27 08:52:05,15.08846589,0.0001231,53.2143,197.1943,86.0324,274.0809,0.00014829,2.073e-05,0.0,0 STARLINK-4606,1 53632U 22104AW  23208.36950503  .00002073  00000-0  14829-3 0  9993,2 53632  53.2143 197.1943 0001231  86.0324 274.0809 15.08846589 50833,6917.86,95.437,540.577,538.874,0.0
53632.0,STARLINK-4606,PAYLOAD,2023-07-27 16:49:01,15.0884031,0.0001257,53.2141,195.7077,82.5239,277.5896,4.6622e-05,4.54e-06,0.0,0 STARLINK-4606,1 53632U 22104AW  23208.70070806  .00000454  00000-0  46622-4 0  9998,2 53632  53.2141 195.7077 0001257  82.5239 277.5896 15.08840310 50882,6917.879,95.438,540.614,538.875,0.0
53632.0,STARLINK-4606,PAYLOAD,2023-07-28 10:18:15,15.08839386,0.0001209,53.2157,192.4362,94.8075,265.3055,1.9771e-05,2.7e-07,0.0,0 STARLINK-4606,1 53632U 22104AW  23209.42934969  .00000027  00000-0  19771-4 0  9998,2 53632  53.2157 192.4362 0001209  94.8075 265.3055 15.08839386 52011,6917.882,95.438,540.584,538.911,0.0
53632.0,STARLINK-4606,PAYLOAD,2023-07-29 02:12:07,15.08835966,0.0001333,53.216,189.4621,95.1693,264.9451,-5.1584e-06,-3.7e-06,0.0,0 STARLINK-4606,1 53632U 22104AW  23210.09175381 -.00000370  00000-0 -51584-5 0  9990,2 53632  53.2160 189.4621 0001333  95.1693 264.9451 15.08835966 51099,6917.893,95.438,540.68,538.836,0.0
53632.0,STARLINK-4606,PAYLOAD,2023-07-30 05:13:40,15.08838572,0.0001308,53.2161,184.4074,93.9012,266.2129,8.6416e-05,1.088e-05,0.0,0 STARLINK-4606,1 53632U 22104AW  23211.21783178  .00001088  00000-0  86416-4 0  9990,2 53632  53.2161 184.4074 0001308  93.9012 266.2129 15.08838572 51262,6917.885,95.438,540.655,538.845,0.0
